OBJECT_NAME,OBJECT_ID,EPOCH,MEAN_MOTION,ECCENTRICITY,INCLINATION,RA_OF_ASC_NODE,ARG_OF_PERICENTER,MEAN_ANOMALY,EPHEMERIS_TYPE,CLASSIFICATION_TYPE,NORAD_CAT_ID,ELEMENT_SET_NO,REV_AT_EPOCH,BSTAR,MEAN_MOTION_DOT,MEAN_MOTION_DDOT
PERSEUS-M1,2014-033AF,2026-06-09T08:12:55.575360,14.95609374,.00107804,97.9644,104.3459,331.1893,28.8731,0,U,40039,999,64946,.14637105E-3,.1566E-4,0
POLYITAN-1,2014-033AJ,2026-06-09T08:24:58.141152,15.32980503,.00080243,98.0953,185.8720,164.0960,196.0533,0,U,40042,999,65239,.5373116E-3,.17064E-3,0
TIGRISAT,2014-033AK,2026-06-09T08:49:35.557824,14.85131645,.00506967,97.7823,310.5595,100.1646,260.5292,0,U,40043,999,64446,.2491427E-3,.2126E-4,0
AEROCUBE 6A,2014-033AM,2026-06-09T08:12:51.173280,14.98021109,.00393497,97.7224,327.3751,44.0714,316.3633,0,U,40045,999,64544,.4349104E-3,.516E-4,0
AEROCUBE 6B,2014-033AN,2026-06-09T08:27:13.837536,14.99486502,.00389335,97.7232,327.1573,35.9586,324.4245,0,U,40046,999,64558,.474951E-3,.5861E-4,0
CANX-4,2014-034C,2026-06-09T09:12:18.892800,14.81250099,.00136702,98.3132,35.4098,40.8785,319.3449,0,U,40055,999,64337,.11495601E-3,.839E-5,0
CANX-5,2014-034D,2026-06-09T09:10:11.342208,14.81267261,.00136811,98.3135,35.4515,41.0004,319.2233,0,U,40056,999,63418,.11622738E-3,.85E-5,0
UKUBE-1,2014-037F,2026-06-09T11:58:44.989248,15.13429238,.00021504,98.4238,162.9637,144.6961,215.4410,0,U,40074,999,64739,.45634927E-3,.8079E-4,0
BRITE-PL2 (HEWELIUSZ),2014-049B,2026-06-09T12:57:43.756992,14.94569959,.00151668,97.9090,272.4818,131.1884,229.0646,0,U,40119,999,64030,.18026139E-3,.1894E-4,0
AEROCUBE 5C,2015-058B,2026-06-09T11:01:54.206688,14.91417272,.0130454,64.7678,286.6293,66.3052,295.1686,0,U,40965,999,36450,.21012472E-3,.2298E-4,0
AEROCUBE 7,2015-058C,2026-06-09T13:04:38.548704,14.95677065,.01201696,64.7627,268.7521,64.7453,296.6058,0,U,40966,999,36481,.25974166E-3,.3168E-4,0
FOX-1A (AO-85),2015-058D,2026-06-09T12:06:49.256928,14.90932457,.0130003,64.7758,302.8578,59.6042,301.7845,0,U,40967,999,11242,.22900237E-3,.2485E-4,0
SINOD-D 1,2015-058E,2026-06-09T12:34:12.824256,14.95856209,.01186055,64.7759,282.9106,56.1390,305.0942,0,U,40968,999,11551,.2598815E-3,.3174E-4,0
SNAP-3 ALICE,2015-058G,2026-06-09T06:49:45.116544,15.58274483,.00303608,64.7496,131.2113,16.9431,343.2720,0,U,40970,999,11565,.13676752E-2,.107658E-2,0
LMRST-SAT,2015-058H,2026-06-09T12:36:15.637536,14.90555137,.01316785,64.7764,299.1177,61.6128,299.8185,0,U,40971,999,11241,.21297067E-3,.2284E-4,0
SNAP-3 EDDIE,2015-058J,2026-06-09T06:44:21.463872,15.59448461,.00301853,64.7419,122.0068,21.1073,339.1310,0,U,40972,999,11779,.13102802E-2,.107828E-2,0
PROPCUBE 3,2015-058K,2026-06-09T12:18:10.885536,14.94214515,.01236909,64.7691,276.5132,62.9474,298.4199,0,U,40973,999,11365,.23361803E-3,.2739E-4,0
BISONSAT,2015-058L,2026-06-09T10:44:23.233632,15.16027465,.0078452,64.7591,198.6642,50.4592,310.3430,0,U,40974,999,11444,.42588205E-3,.8692E-4,0
SNAP-3 JIMI,2015-058M,2026-06-09T09:36:41.310432,15.02231354,.01057972,64.7650,244.4078,58.5507,302.5900,0,U,40975,999,11305,.27556622E-3,.3924E-4,0
PROPCUBE 1 (FLORA),2015-058N,2026-06-09T12:57:55.441728,14.89186066,.01304166,64.7754,318.9360,63.9157,297.5308,0,U,40976,999,11512,.23388606E-3,.2424E-4,0
SINOD-D 3,2015-058P,2026-06-09T13:02:00.107520,14.93967362,.01188954,64.7734,299.6886,61.1740,300.1248,0,U,40977,999,11361,.27369056E-3,.3182E-4,0
HORYU-4,2016-012D,2026-06-09T07:01:20.100000,15.90004490,.00032551,30.9844,136.7554,219.0732,140.9694,0,U,41340,999,56955,.10049043E-2,.328479E-2,0
RAVAN,2016-067B,2026-06-09T10:43:38.950176,15.53933589,.00055625,97.9901,49.1286,52.3826,307.7930,0,U,41849,999,52649,.70240452E-3,.4541E-3,0
CELTEE 1,2016-067C,2026-06-09T08:54:49.831776,15.19605176,.00006376,98.0677,26.4054,110.8167,249.3134,0,U,41850,999,52469,.23577806E-3,.4943E-4,0
OPTICUBE 04,2016-067D,2026-06-09T12:33:09.296064,15.09628455,.00165331,98.0713,12.4071,139.6527,220.5931,0,U,41851,999,52401,.14469281E-3,.2262E-4,0
AEROCUBE 8D,2016-067E,2026-06-09T12:58:58.866240,15.24290359,.00042509,98.0697,30.1309,142.2126,217.9408,0,U,41852,999,52490,.2748631E-3,.6636E-4,0
AEROCUBE 8C,2016-067F,2026-06-09T08:53:12.747552,15.24534072,.00068182,98.0570,27.1850,89.9897,270.2120,0,U,41853,999,52487,.28670262E-3,.6979E-4,0
CORVUS BC2,2017-042X,2026-06-08T21:22:58.621728,15.06243536,.00142172,97.4057,321.5648,135.9338,224.3026,0,U,42846,999,48581,.19451319E-3,.28E-4,0
CORVUS BC1,2017-042Y,2026-06-09T10:01:47.001504,15.06412944,.00132619,97.4082,322.8801,112.9498,247.3131,0,U,42847,999,48592,.18013503E-3,.26E-4,0
MAKERSAT 0,2017-073D,2026-06-09T09:46:19.610688,15.31822725,.01058401,97.4644,42.8658,301.2002,57.8898,0,U,43016,999,46527,.4946686E-3,.18066E-3,0
